[{"OBJECT_NAME":"SDA_1664","OBJECT_ID":"2025-230A","EPOCH":"2026-03-09T22:53:15.948384","MEAN_MOTION":13.84453987,"ECCENTRICITY":0.00026169,"INCLINATION":81.2983,"RA_OF_ASC_NODE":303.7448,"ARG_OF_PERICENTER":69.1255,"MEAN_ANOMALY":291.0182,"EPHEMERIS_TYPE":0,"CLASSIFICATION_TYPE":"U","NORAD_CAT_ID":65974,"ELEMENT_SET_NO":999,"REV_AT_EPOCH":2007,"BSTAR":-0.026604975,"MEAN_MOTION_DOT":-0.00029653,"MEAN_MOTION_DDOT":0},{"OBJECT_NAME":"SL-8 R\/B","OBJECT_ID":"1984-109B","EPOCH":"2026-03-09T20:51:34.768224","MEAN_MOTION":13.77055753,"ECCENTRICITY":0.00422894,"INCLINATION":82.9418,"RA_OF_ASC_NODE":199.3074,"ARG_OF_PERICENTER":134.2279,"MEAN_ANOMALY":226.2364,"EPHEMERIS_TYPE":0,"CLASSIFICATION_TYPE":"U","NORAD_CAT_ID":15360,"ELEMENT_SET_NO":999,"REV_AT_EPOCH":7997,"BSTAR":0.00011843345,"MEAN_MOTION_DOT":1.33e-6,"MEAN_MOTION_DDOT":0}]
